[Satellite]
VERSION=1.1
NAME=ASTRA 2A
NICKNAME=ASTRA 2A
TLE1=1 25462U 98050A   17186.11438139 -.00000364  00000-0  00000-0 0  9998
TLE2=2 25462   0.0625 238.8945 0002548 216.5306 342.5210  1.00269856 68968
